{
  "norad_id": 56711,
  "name": "ONEWEB-0668",
  "history": [
    {
      "epoch": "2026-03-28T19:06:27.009216Z",
      "apogee_km": 1198.8188772744097,
      "perigee_km": 1196.7030804868673,
      "latitude_deg": 2.750133294703244e-05,
      "longitude_deg": 131.92210946915338,
      "height_km": 1200.5300850990532,
      "semi_major_axis_km": 7575.897978880638,
      "eccentricity": 0.00013964,
      "inclination_deg": 87.9042,
      "raan_deg": 244.7461,
      "arg_perigee_deg": 83.1871,
      "mean_anomaly_deg": 276.9419,
      "mean_motion_rev_day": 13.16593133
    },
    {
      "epoch": "2026-03-29T04:13:37.727040Z",
      "apogee_km": 1198.8124060940663,
      "perigee_km": 1196.709336844946,
      "latitude_deg": 1.270954076587009e-05,
      "longitude_deg": -5.32277912353938,
      "height_km": 1200.5364934916547,
      "semi_major_axis_km": 7575.897871469506,
      "eccentricity": 0.0001388,
      "inclination_deg": 87.9043,
      "raan_deg": 244.6704,
      "arg_perigee_deg": 83.5022,
      "mean_anomaly_deg": 276.6267,
      "mean_motion_rev_day": 13.16593161
    },
    {
      "epoch": "2026-03-30T03:56:17.578176Z",
      "apogee_km": 1198.7966079709886,
      "perigee_km": 1196.7253574625138,
      "latitude_deg": 2.9558752870368977e-05,
      "longitude_deg": -2.159403335142399,
      "height_km": 1200.5519687863243,
      "semi_major_axis_km": 7575.89798271675,
      "eccentricity": 0.0001367,
      "inclination_deg": 87.9043,
      "raan_deg": 244.4736,
      "arg_perigee_deg": 84.2551,
      "mean_anomaly_deg": 275.8736,
      "mean_motion_rev_day": 13.16593132
    },
    {
      "epoch": "2026-03-30T09:24:35.979840Z",
      "apogee_km": 1198.7906295949488,
      "perigee_km": 1196.7299855272931,
      "latitude_deg": 9.878521141775215e-06,
      "longitude_deg": -84.50619533548004,
      "height_km": 1200.5514423998752,
      "semi_major_axis_km": 7575.897307561121,
      "eccentricity": 0.000136,
      "inclination_deg": 87.9043,
      "raan_deg": 244.4282,
      "arg_perigee_deg": 84.2329,
      "mean_anomaly_deg": 275.8957,
      "mean_motion_rev_day": 13.16593308
    }
  ]
}